{
  "type": "FeatureCollection",
  "features": [
    {
      "type": "Feature",
      "properties": {
        "norad_id": 34635,
        "name": "COSMOS 2251 DEB",
        "group": "cosmos-2251-debris",
        "lat": 57.59256524407767,
        "lon": -128.02352424386314,
        "alt_km": 643.3800097973071,
        "timestamp": "2025-12-08T13:49:32.189026+00:00",
        "meta_object_name": "COSMOS 2251 DEB",
        "meta_object_id": "1993-036XG",
        "meta_epoch": "2025-12-08T02:06:06.797952",
        "meta_mean_motion": 14.68160703,
        "meta_eccentricity": 0.00290146,
        "meta_inclination": 74.0459,
        "meta_ra_of_asc_node": 79.7048,
        "meta_arg_of_pericenter": 150.0135,
        "meta_mean_anomaly": 267.9022,
        "meta_ephemeris_type": 0,
        "meta_classification_type": "U",
        "meta_norad_cat_id": 34635,
        "meta_element_set_no": 999,
        "meta_rev_at_epoch": 73151,
        "meta_bstar": 0.0017847974,
        "meta_mean_motion_dot": 0.00010317,
        "meta_mean_motion_ddot": 0,
        "tle_line1": "1 34635U 93036XG  25342.08757868  .00010317  00000+0  17848-2 0  9998",
        "tle_line2": "2 34635  74.0459  79.7048 0029014 150.0135 267.9022 14.68160703731519"
      },
      "geometry": {
        "type": "Point",
        "coordinates": [
          -128.02352424386314,
          57.59256524407767
        ]
      }
    },
    {
      "type": "Feature",
      "properties": {
        "norad_id": 34637,
        "name": "COSMOS 2251 DEB",
        "group": "cosmos-2251-debris",
        "lat": 64.86410969282679,
        "lon": 146.6550673464399,
        "alt_km": 698.5414397931354,
        "timestamp": "2025-12-08T13:49:32.189036+00:00",
        "meta_object_name": "COSMOS 2251 DEB",
        "meta_object_id": "1993-036XJ",
        "meta_epoch": "2025-12-08T02:48:09.029088",
        "meta_mean_motion": 14.60023586,
        "meta_eccentricity": 0.00502484,
        "meta_inclination": 74.049,
        "meta_ra_of_asc_node": 109.9721,
        "meta_arg_of_pericenter": 181.6072,
        "meta_mean_anomaly": 356.1817,
        "meta_ephemeris_type": 0,
        "meta_classification_type": "U",
        "meta_norad_cat_id": 34637,
        "meta_element_set_no": 999,
        "meta_rev_at_epoch": 88459,
        "meta_bstar": 0.0015242607,
        "meta_mean_motion_dot": 7.427e-05,
        "meta_mean_motion_ddot": 0,
        "tle_line1": "1 34637U 93036XJ  25342.11677117  .00007427  00000+0  15243-2 0  9997",
        "tle_line2": "2 34637  74.0490 109.9721 0050248 181.6072 356.1817 14.60023586884592"
      },
      "geometry": {
        "type": "Point",
        "coordinates": [
          146.6550673464399,
          64.86410969282679
        ]
      }
    },
    {
      "type": "Feature",
      "properties": {
        "norad_id": 34641,
        "name": "COSMOS 2251 DEB",
        "group": "cosmos-2251-debris",
        "lat": -2.7070208096272736,
        "lon": -89.628240416868,
        "alt_km": 734.889683335713,
        "timestamp": "2025-12-08T13:49:32.189047+00:00",
        "meta_object_name": "COSMOS 2251 DEB",
        "meta_object_id": "1993-036XN",
        "meta_epoch": "2025-12-07T07:21:43.493760",
        "meta_mean_motion": 14.51935512,
        "meta_eccentricity": 0.00178485,
        "meta_inclination": 73.8391,
        "meta_ra_of_asc_node": 92.0049,
        "meta_arg_of_pericenter": 8.6323,
        "meta_mean_anomaly": 22.0244,
        "meta_ephemeris_type": 0,
        "meta_classification_type": "U",
        "meta_norad_cat_id": 34641,
        "meta_element_set_no": 999,
        "meta_rev_at_epoch": 88177,
        "meta_bstar": 0.0017326288,
        "meta_mean_motion_dot": 6.982e-05,
        "meta_mean_motion_ddot": 0,
        "tle_line1": "1 34641U 93036XN  25341.30675340  .00006982  00000+0  17326-2 0  9997",
        "tle_line2": "2 34641  73.8391  92.0049 0017848   8.6323  22.0244 14.51935512881776"
      },
      "geometry": {
        "type": "Point",
        "coordinates": [
          -89.628240416868,
          -2.7070208096272736
        ]
      }
    },
    {
      "type": "Feature",
      "properties": {
        "norad_id": 34642,
        "name": "COSMOS 2251 DEB",
        "group": "cosmos-2251-debris",
        "lat": -18.180020628976695,
        "lon": -18.39099871609762,
        "alt_km": 1052.006805551032,
        "timestamp": "2025-12-08T13:49:32.189058+00:00",
        "meta_object_name": "COSMOS 2251 DEB",
        "meta_object_id": "1993-036XP",
        "meta_epoch": "2025-12-08T02:12:01.128672",
        "meta_mean_motion": 13.98954393,
        "meta_eccentricity": 0.0207595,
        "meta_inclination": 74.0054,
        "meta_ra_of_asc_node": 347.8524,
        "meta_arg_of_pericenter": 168.7947,
        "meta_mean_anomaly": 253.5493,
        "meta_ephemeris_type": 0,
        "meta_classification_type": "U",
        "meta_norad_cat_id": 34642,
        "meta_element_set_no": 999,
        "meta_rev_at_epoch": 85228,
        "meta_bstar": 0.0012762902,
        "meta_mean_motion_dot": 2.194e-05,
        "meta_mean_motion_ddot": 0,
        "tle_line1": "1 34642U 93036XP  25342.09167973  .00002194  00000+0  12763-2 0  9994",
        "tle_line2": "2 34642  74.0054 347.8524 0207595 168.7947 253.5493 13.98954393852284"
      },
      "geometry": {
        "type": "Point",
        "coordinates": [
          -18.39099871609762,
          -18.180020628976695
        ]
      }
    },
    {
      "type": "Feature",
      "properties": {
        "norad_id": 34671,
        "name": "COSMOS 2251 DEB",
        "group": "cosmos-2251-debris",
        "lat": 59.50899340229564,
        "lon": 171.4401661853623,
        "alt_km": 672.8548736785542,
        "timestamp": "2025-12-08T13:49:32.189068+00:00",
        "meta_object_name": "COSMOS 2251 DEB",
        "meta_object_id": "1993-036XR",
        "meta_epoch": "2025-12-08T04:31:34.506048",
        "meta_mean_motion": 14.66800056,
        "meta_eccentricity": 0.001179,
        "meta_inclination": 74.0265,
        "meta_ra_of_asc_node": 143.0805,
        "meta_arg_of_pericenter": 222.4443,
        "meta_mean_anomaly": 316.1323,
        "meta_ephemeris_type": 0,
        "meta_classification_type": "U",
        "meta_norad_cat_id": 34671,
        "meta_element_set_no": 999,
        "meta_rev_at_epoch": 88230,
        "meta_bstar": 0.0022268469,
        "meta_mean_motion_dot": 0.00012429,
        "meta_mean_motion_ddot": 0,
        "tle_line1": "1 34671U 93036XR  25342.18859382  .00012429  00000+0  22268-2 0  9991",
        "tle_line2": "2 34671  74.0265 143.0805 0011790 222.4443 316.1323 14.66800056882303"
      },
      "geometry": {
        "type": "Point",
        "coordinates": [
          171.4401661853623,
          59.50899340229564
        ]
      }
    },
    {
      "type": "Feature",
      "properties": {
        "norad_id": 34672,
        "name": "COSMOS 2251 DEB",
        "group": "cosmos-2251-debris",
        "lat": -20.010452993294855,
        "lon": -52.74487965875506,
        "alt_km": 763.6988357163718,
        "timestamp": "2025-12-08T13:49:32.189079+00:00",
        "meta_object_name": "COSMOS 2251 DEB",
        "meta_object_id": "1993-036XS",
        "meta_epoch": "2025-12-08T07:33:35.281152",
        "meta_mean_motion": 14.36398163,
        "meta_eccentricity": 0.00235672,
        "meta_inclination": 74.0335,
        "meta_ra_of_asc_node": 313.7193,
        "meta_arg_of_pericenter": 26.7043,
        "meta_mean_anomaly": 43.2667,
        "meta_ephemeris_type": 0,
        "meta_classification_type": "U",
        "meta_norad_cat_id": 34672,
        "meta_element_set_no": 999,
        "meta_rev_at_epoch": 65114,
        "meta_bstar": 0.00050497184,
        "meta_mean_motion_dot": 1.458e-05,
        "meta_mean_motion_ddot": 0,
        "tle_line1": "1 34672U 93036XS  25342.31499168  .00001458  00000+0  50497-3 0  9995",
        "tle_line2": "2 34672  74.0335 313.7193 0023567  26.7043  43.2667 14.36398163651147"
      },
      "geometry": {
        "type": "Point",
        "coordinates": [
          -52.74487965875506,
          -20.010452993294855
        ]
      }
    },
    {
      "type": "Feature",
      "properties": {
        "norad_id": 34678,
        "name": "COSMOS 2251 DEB",
        "group": "cosmos-2251-debris",
        "lat": -69.69535288264377,
        "lon": -116.06422310318278,
        "alt_km": 815.3962423250914,
        "timestamp": "2025-12-08T13:49:32.189090+00:00",
        "meta_object_name": "COSMOS 2251 DEB",
        "meta_object_id": "1993-036XY",
        "meta_epoch": "2025-12-08T06:29:26.023776",
        "meta_mean_motion": 14.30064007,
        "meta_eccentricity": 0.0024319,
        "meta_inclination": 74.038,
        "meta_ra_of_asc_node": 13.8185,
        "meta_arg_of_pericenter": 64.3846,
        "meta_mean_anomaly": 60.1402,
        "meta_ephemeris_type": 0,
        "meta_classification_type": "U",
        "meta_norad_cat_id": 34678,
        "meta_element_set_no": 999,
        "meta_rev_at_epoch": 87315,
        "meta_bstar": 5.7808211e-05,
        "meta_mean_motion_dot": 1.24e-06,
        "meta_mean_motion_ddot": 0,
        "tle_line1": "1 34678U 93036XY  25342.27044009  .00000124  00000+0  57808-4 0  9999",
        "tle_line2": "2 34678  74.0380  13.8185 0024319  64.3846  60.1402 14.30064007873150"
      },
      "geometry": {
        "type": "Point",
        "coordinates": [
          -116.06422310318278,
          -69.69535288264377
        ]
      }
    }
  ]
}